ORBCOMM FM33            
1 25983U 99065D   25138.46815107  .00000936  00000+0  33960-3 0  9998
2 25983  45.0270 140.2452 0010604 275.8888  84.0753 14.39942586331782
ORBCOMM FM36            
1 25984U 99065E   25138.53317636  .00001280  00000+0  46545-3 0  9997
2 25984  45.0388 231.4188 0004039 183.7833 176.2986 14.38060850330150
ORBCOMM FM35            
1 25985U 99065F   25138.56121601  .00001031  00000+0  39177-3 0  9993
2 25985  45.0393 236.0857 0005467 241.1797 118.8502 14.37040763330522
ORBCOMM FM34            
1 25986U 99065G   25138.59729478  .00000914  00000+0  35260-3 0  9991
2 25986  45.0386 236.3907 0005526 206.4633 153.5934 14.37070047330649
ORBCOMM FM38            
1 33060U 08031A   25138.59945724  .00002499  00000+0  34468-3 0  9999
2 33060  48.4392  96.2383 0005494 274.3096  85.7192 14.81214747910368
ORBCOMM FM41            
1 33061U 08031B   25138.62639738  .00002401  00000+0  33547-3 0  9999
2 33061  48.4425 103.7871 0004677 260.8963 269.7121 14.80801315909857
ORBCOMM FM29            
1 33062U 08031C   25138.33815839  .00002561  00000+0  35510-3 0  9995
2 33062  48.4374 113.0054 0006390 258.3045 247.6186 14.80899385909721
ORBCOMM FM39            
1 33063U 08031D   25138.38004996  .00001665  00000+0  24854-3 0  9998
2 33063  48.4392 136.7535 0007143 232.1695 127.8574 14.79467639909389
